{
  "type": "FeatureCollection",
  "features": [
    {
      "type": "Feature",
      "properties": {
        "norad_id": 36585,
        "name": "GPS BIIF-1  (PRN 25)",
        "group": "gnss",
        "lat": 8.803978006372903,
        "lon": -137.8313072345645,
        "alt_km": 19983.06935599382,
        "timestamp": "2025-12-20T11:30:28.619454+00:00",
        "meta_object_name": "GPS BIIF-1  (PRN 25)",
        "meta_object_id": "2010-022A",
        "meta_epoch": "2025-12-20T02:58:58.243008",
        "meta_mean_motion": 2.00553637,
        "meta_eccentricity": 0.0126416,
        "meta_inclination": 54.299,
        "meta_ra_of_asc_node": 215.776,
        "meta_arg_of_pericenter": 65.1663,
        "meta_mean_anomaly": 50.4936,
        "meta_ephemeris_type": 0,
        "meta_classification_type": "U",
        "meta_norad_cat_id": 36585,
        "meta_element_set_no": 999,
        "meta_rev_at_epoch": 11400,
        "meta_bstar": 0,
        "meta_mean_motion_dot": 8e-07,
        "meta_mean_motion_ddot": 0,
        "tle_line1": "1 36585U 10022A   25354.12428522  .00000080  00000+0  00000+0 0  9993",
        "tle_line2": "2 36585  54.2990 215.7760 0126416  65.1663  50.4936  2.00553637114007"
      },
      "geometry": {
        "type": "Point",
        "coordinates": [
          -137.8313072345645,
          8.803978006372903
        ]
      }
    },
    {
      "type": "Feature",
      "properties": {
        "norad_id": 36828,
        "name": "BEIDOU-2 IGSO-1 (C06)",
        "group": "gnss",
        "lat": -20.236959322712156,
        "lon": -0.03191302349034982,
        "alt_km": 35576.30112234407,
        "timestamp": "2025-12-20T11:30:28.619466+00:00",
        "meta_object_name": "BEIDOU-2 IGSO-1 (C06)",
        "meta_object_id": "2010-036A",
        "meta_epoch": "2025-12-14T21:38:21.623424",
        "meta_mean_motion": 1.00275796,
        "meta_eccentricity": 0.00512569,
        "meta_inclination": 54.2866,
        "meta_ra_of_asc_node": 164.6279,
        "meta_arg_of_pericenter": 215.8888,
        "meta_mean_anomaly": 135.7931,
        "meta_ephemeris_type": 0,
        "meta_classification_type": "U",
        "meta_norad_cat_id": 36828,
        "meta_element_set_no": 999,
        "meta_rev_at_epoch": 5624,
        "meta_bstar": 0,
        "meta_mean_motion_dot": -2.4e-07,
        "meta_mean_motion_ddot": 0,
        "tle_line1": "1 36828U 10036A   25348.90163916 -.00000024  00000+0  00000+0 0  9999",
        "tle_line2": "2 36828  54.2866 164.6279 0051256 215.8888 135.7931  1.00275796 56247"
      },
      "geometry": {
        "type": "Point",
        "coordinates": [
          -0.03191302349034982,
          -20.236959322712156
        ]
      }
    },
    {
      "type": "Feature",
      "properties": {
        "norad_id": 37210,
        "name": "BEIDOU-2 G4 (C04)",
        "group": "gnss",
        "lat": -0.41487748942542685,
        "lon": 62.06291242070036,
        "alt_km": 35827.431210954885,
        "timestamp": "2025-12-20T11:30:28.619480+00:00",
        "meta_object_name": "BEIDOU-2 G4 (C04)",
        "meta_object_id": "2010-057A",
        "meta_epoch": "2025-12-20T03:43:10.763616",
        "meta_mean_motion": 1.00272028,
        "meta_eccentricity": 0.0010428,
        "meta_inclination": 3.2021,
        "meta_ra_of_asc_node": 69.9113,
        "meta_arg_of_pericenter": 192.7452,
        "meta_mean_anomaly": 42.2144,
        "meta_ephemeris_type": 0,
        "meta_classification_type": "U",
        "meta_norad_cat_id": 37210,
        "meta_element_set_no": 999,
        "meta_rev_at_epoch": 5549,
        "meta_bstar": 0,
        "meta_mean_motion_dot": -9e-07,
        "meta_mean_motion_ddot": 0,
        "tle_line1": "1 37210U 10057A   25354.15498569 -.00000090  00000+0  00000+0 0  9990",
        "tle_line2": "2 37210   3.2021  69.9113 0010428 192.7452  42.2144  1.00272028 55499"
      },
      "geometry": {
        "type": "Point",
        "coordinates": [
          62.06291242070036,
          -0.41487748942542685
        ]
      }
    },
    {
      "type": "Feature",
      "properties": {
        "norad_id": 37256,
        "name": "BEIDOU-2 IGSO-2 (C07)",
        "group": "gnss",
        "lat": 47.64964366413943,
        "lon": 11.898336824783089,
        "alt_km": 35881.37072897753,
        "timestamp": "2025-12-20T11:30:28.619491+00:00",
        "meta_object_name": "BEIDOU-2 IGSO-2 (C07)",
        "meta_object_id": "2010-068A",
        "meta_epoch": "2025-12-19T17:11:58.178112",
        "meta_mean_motion": 1.00284373,
        "meta_eccentricity": 0.00484108,
        "meta_inclination": 47.8732,
        "meta_ra_of_asc_node": 274.0632,
        "meta_arg_of_pericenter": 216.3467,
        "meta_mean_anomaly": 324.0365,
        "meta_ephemeris_type": 0,
        "meta_classification_type": "U",
        "meta_norad_cat_id": 37256,
        "meta_element_set_no": 999,
        "meta_rev_at_epoch": 5499,
        "meta_bstar": 0,
        "meta_mean_motion_dot": -1.93e-06,
        "meta_mean_motion_ddot": 0,
        "tle_line1": "1 37256U 10068A   25353.71664558 -.00000193  00000+0  00000+0 0  9990",
        "tle_line2": "2 37256  47.8732 274.0632 0048410 216.3467 324.0365  1.00284373 54994"
      },
      "geometry": {
        "type": "Point",
        "coordinates": [
          11.898336824783089,
          47.64964366413943
        ]
      }
    },
    {
      "type": "Feature",
      "properties": {
        "norad_id": 37384,
        "name": "BEIDOU-2 IGSO-3 (C08)",
        "group": "gnss",
        "lat": -28.266740563124245,
        "lon": 25.38685145539263,
        "alt_km": 35904.148434776725,
        "timestamp": "2025-12-20T11:30:28.619503+00:00",
        "meta_object_name": "BEIDOU-2 IGSO-3 (C08)",
        "meta_object_id": "2011-013A",
        "meta_epoch": "2025-12-19T15:24:21.799872",
        "meta_mean_motion": 1.00269211,
        "meta_eccentricity": 0.0035344,
        "meta_inclination": 62.1523,
        "meta_ra_of_asc_node": 41.8505,
        "meta_arg_of_pericenter": 187.8464,
        "meta_mean_anomaly": 197.2749,
        "meta_ephemeris_type": 0,
        "meta_classification_type": "U",
        "meta_norad_cat_id": 37384,
        "meta_element_set_no": 999,
        "meta_rev_at_epoch": 5386,
        "meta_bstar": 0,
        "meta_mean_motion_dot": -1.68e-06,
        "meta_mean_motion_ddot": 0,
        "tle_line1": "1 37384U 11013A   25353.64191898 -.00000168  00000+0  00000+0 0  9999",
        "tle_line2": "2 37384  62.1523  41.8505 0035344 187.8464 197.2749  1.00269211 53869"
      },
      "geometry": {
        "type": "Point",
        "coordinates": [
          25.38685145539263,
          -28.266740563124245
        ]
      }
    },
    {
      "type": "Feature",
      "properties": {
        "norad_id": 37605,
        "name": "GSAT-8 (GAGAN/PRN 127)",
        "group": "gnss",
        "lat": -1.3502965113855387,
        "lon": -42.93254842693633,
        "alt_km": 35761.19723739868,
        "timestamp": "2025-12-20T11:30:28.619515+00:00",
        "meta_object_name": "GSAT-8 (GAGAN/PRN 127)",
        "meta_object_id": "2011-022A",
        "meta_epoch": "2025-12-20T03:13:13.633248",
        "meta_mean_motion": 1.00270781,
        "meta_eccentricity": 0.0008846,
        "meta_inclination": 1.6677,
        "meta_ra_of_asc_node": 84.1202,
        "meta_arg_of_pericenter": 185.3843,
        "meta_mean_anomaly": 282.8543,
        "meta_ephemeris_type": 0,
        "meta_classification_type": "U",
        "meta_norad_cat_id": 37605,
        "meta_element_set_no": 999,
        "meta_rev_at_epoch": 5142,
        "meta_bstar": 0,
        "meta_mean_motion_dot": 1.07e-06,
        "meta_mean_motion_ddot": 0,
        "tle_line1": "1 37605U 11022A   25354.13418557  .00000107  00000+0  00000+0 0  9996",
        "tle_line2": "2 37605   1.6677  84.1202 0008846 185.3843 282.8543  1.00270781 51425"
      },
      "geometry": {
        "type": "Point",
        "coordinates": [
          -42.93254842693633,
          -1.3502965113855387
        ]
      }
    },
    {
      "type": "Feature",
      "properties": {
        "norad_id": 37763,
        "name": "BEIDOU-2 IGSO-4 (C09)",
        "group": "gnss",
        "lat": -6.656117218235496,
        "lon": -7.962667604895198,
        "alt_km": 35314.145880947915,
        "timestamp": "2025-12-20T11:30:28.619527+00:00",
        "meta_object_name": "BEIDOU-2 IGSO-4 (C09)",
        "meta_object_id": "2011-038A",
        "meta_epoch": "2025-12-17T23:29:21.564384",
        "meta_mean_motion": 1.00281312,
        "meta_eccentricity": 0.01493143,
        "meta_inclination": 54.5836,
        "meta_ra_of_asc_node": 167.2999,
        "meta_arg_of_pericenter": 230.2426,
        "meta_mean_anomaly": 136.1954,
        "meta_ephemeris_type": 0,
        "meta_classification_type": "U",
        "meta_norad_cat_id": 37763,
        "meta_element_set_no": 999,
        "meta_rev_at_epoch": 5283,
        "meta_bstar": 0,
        "meta_mean_motion_dot": 6.5e-07,
        "meta_mean_motion_ddot": 0,
        "tle_line1": "1 37763U 11038A   25351.97872181  .00000065  00000+0  00000+0 0  9997",
        "tle_line2": "2 37763  54.5836 167.2999 0149314 230.2426 136.1954  1.00281312 52838"
      },
      "geometry": {
        "type": "Point",
        "coordinates": [
          -7.962667604895198,
          -6.656117218235496
        ]
      }
    }
  ]
}